UNKNOWN                 
1 82524U          25346.31369453  .00007055  00000+0  22570-2 0  9999
2 82524  73.2821 182.5462 0135089 309.9646 227.0242 14.34694492576976
UNKNOWN                 
1 82529U          25339.98257390  .00000704  00000+0  11453-2 0  9997
2 82529  99.7920  63.5891 0237651 256.7588 281.7302 13.41093700588834
UNKNOWN                 
1 82560U          25337.12649323  .00002035  00000+0  16726-2 0  9994
2 82560  99.9869 278.9685 0012024 335.7988  38.9613 13.90598384610535
UNKNOWN                 
1 82597U          25345.45653256  .00002915  00000+0  98286-3 0  9998
2 82597  66.7690 151.3709 0097558 308.0518  51.1810 14.35727044628797
UNKNOWN                 
1 82617U          25345.42095480  .00001019  00000+0  27122-3 0  9992
2 82617  74.0274 246.1131 0038875 191.7054 168.3206 14.49396195636637
UNKNOWN                 
1 82627U          25345.69438387  .00000836  00000+0  21637-2 0  9999
2 82627  82.4766 249.3808 0011132  82.1399 307.0148 13.16298541578692
UNKNOWN                 
1 82642U          25337.47319889  .00003670  00000+0  20406-2 0  9990
2 82642  98.9738 248.0781 0135490 263.4998  95.0730 14.07154870614834
UNKNOWN                 
1 82683U          25344.92935851  .00001397  00000+0  53932-3 0  9991
2 82683  98.1742  54.0145 0211091  41.5535 320.1474 14.20121049462014
UNKNOWN                 
1 82693U          25345.61149135  .00004229  00000+0  48775-2 0  9996
2 82693 100.5296 309.0192 0044844  23.8139 336.5066 13.69496519553608
UNKNOWN                 
1 82698U          25346.20244522  .00002412  00000+0  14570-2 0  9991
2 82698  61.6104 151.9106 0684082 289.4268  63.4064 13.29425846538309
UNKNOWN                 
1 82708U          25343.53896649  .00000563  00000+0  23177-2 0  9997
2 82708 102.1665 186.3923 0064479 293.9658  65.4691 12.90551568523106
UNKNOWN                 
1 82729U          25345.91937947  .00000330  00000+0  12354-2 0  9998
2 82729  67.9645 147.3119 0831774  11.5359 350.3467 12.17750010535103
