CCSDS_OMM_VERS = 2.0
CREATION_DATE  = 
ORIGINATOR     = 

OBJECT_NAME    = UNKNOWN
OBJECT_ID      = 
CENTER_NAME    = EARTH
REF_FRAME      = TEME
TIME_SYSTEM    = UTC
MEAN_ELEMENT_THEORY = SGP/SGP4

EPOCH          = 2025-12-12T07:31:43.207392
MEAN_MOTION    = 14.34694492
ECCENTRICITY   = .0135089
INCLINATION    = 73.2821
RA_OF_ASC_NODE = 182.5462
ARG_OF_PERICENTER = 309.9646
MEAN_ANOMALY   = 227.0242

EPHEMERIS_TYPE = 0
CLASSIFICATION_TYPE = U
NORAD_CAT_ID   = 82524
ELEMENT_SET_NO = 999
REV_AT_EPOCH   = 57697
BSTAR          = .2257E-2
MEAN_MOTION_DOT = .7055E-4
MEAN_MOTION_DDOT = 0

CCSDS_OMM_VERS = 2.0
CREATION_DATE  = 
ORIGINATOR     = 

OBJECT_NAME    = UNKNOWN
OBJECT_ID      = 
CENTER_NAME    = EARTH
REF_FRAME      = TEME
TIME_SYSTEM    = UTC
MEAN_ELEMENT_THEORY = SGP/SGP4

EPOCH          = 2025-12-05T23:34:54.384960
MEAN_MOTION    = 13.41093700
ECCENTRICITY   = .0237651
INCLINATION    = 99.7920
RA_OF_ASC_NODE = 63.5891
ARG_OF_PERICENTER = 256.7588
MEAN_ANOMALY   = 281.7302

EPHEMERIS_TYPE = 0
CLASSIFICATION_TYPE = U
NORAD_CAT_ID   = 82529
ELEMENT_SET_NO = 999
REV_AT_EPOCH   = 58883
BSTAR          = .11453E-2
MEAN_MOTION_DOT = .704E-5
MEAN_MOTION_DDOT = 0

CCSDS_OMM_VERS = 2.0
CREATION_DATE  = 
ORIGINATOR     = 

OBJECT_NAME    = UNKNOWN
OBJECT_ID      = 
CENTER_NAME    = EARTH
REF_FRAME      = TEME
TIME_SYSTEM    = UTC
MEAN_ELEMENT_THEORY = SGP/SGP4

EPOCH          = 2025-12-03T03:02:09.015072
MEAN_MOTION    = 13.90598384
ECCENTRICITY   = .0012024
INCLINATION    = 99.9869
RA_OF_ASC_NODE = 278.9685
ARG_OF_PERICENTER = 335.7988
MEAN_ANOMALY   = 38.9613

EPHEMERIS_TYPE = 0
CLASSIFICATION_TYPE = U
NORAD_CAT_ID   = 82560
ELEMENT_SET_NO = 999
REV_AT_EPOCH   = 61053
BSTAR          = .16726E-2
MEAN_MOTION_DOT = .2035E-4
MEAN_MOTION_DDOT = 0

CCSDS_OMM_VERS = 2.0
CREATION_DATE  = 
ORIGINATOR     = 

OBJECT_NAME    = UNKNOWN
OBJECT_ID      = 
CENTER_NAME    = EARTH
REF_FRAME      = TEME
TIME_SYSTEM    = UTC
MEAN_ELEMENT_THEORY = SGP/SGP4

EPOCH          = 2025-12-11T10:57:24.413184
MEAN_MOTION    = 14.35727044
ECCENTRICITY   = .0097558
INCLINATION    = 66.7690
RA_OF_ASC_NODE = 151.3709
ARG_OF_PERICENTER = 308.0518
MEAN_ANOMALY   = 51.1810

EPHEMERIS_TYPE = 0
CLASSIFICATION_TYPE = U
NORAD_CAT_ID   = 82597
ELEMENT_SET_NO = 999
REV_AT_EPOCH   = 62879
BSTAR          = .98286E-3
MEAN_MOTION_DOT = .2915E-4
MEAN_MOTION_DDOT = 0

CCSDS_OMM_VERS = 2.0
CREATION_DATE  = 
ORIGINATOR     = 

OBJECT_NAME    = UNKNOWN
OBJECT_ID      = 
CENTER_NAME    = EARTH
REF_FRAME      = TEME
TIME_SYSTEM    = UTC
MEAN_ELEMENT_THEORY = SGP/SGP4

EPOCH          = 2025-12-11T10:06:10.494720
MEAN_MOTION    = 14.49396195
ECCENTRICITY   = .0038875
INCLINATION    = 74.0274
RA_OF_ASC_NODE = 246.1131
ARG_OF_PERICENTER = 191.7054
MEAN_ANOMALY   = 168.3206

EPHEMERIS_TYPE = 0
CLASSIFICATION_TYPE = U
NORAD_CAT_ID   = 82617
ELEMENT_SET_NO = 999
REV_AT_EPOCH   = 63663
BSTAR          = .27122E-3
MEAN_MOTION_DOT = .1019E-4
MEAN_MOTION_DDOT = 0

CCSDS_OMM_VERS = 2.0
CREATION_DATE  = 
ORIGINATOR     = 

OBJECT_NAME    = UNKNOWN
OBJECT_ID      = 
CENTER_NAME    = EARTH
REF_FRAME      = TEME
TIME_SYSTEM    = UTC
MEAN_ELEMENT_THEORY = SGP/SGP4

EPOCH          = 2025-12-11T16:39:54.766368
MEAN_MOTION    = 13.16298541
ECCENTRICITY   = .0011132
INCLINATION    = 82.4766
RA_OF_ASC_NODE = 249.3808
ARG_OF_PERICENTER = 82.1399
MEAN_ANOMALY   = 307.0148

EPHEMERIS_TYPE = 0
CLASSIFICATION_TYPE = U
NORAD_CAT_ID   = 82627
ELEMENT_SET_NO = 999
REV_AT_EPOCH   = 57869
BSTAR          = .21637E-2
MEAN_MOTION_DOT = .836E-5
MEAN_MOTION_DDOT = 0

CCSDS_OMM_VERS = 2.0
CREATION_DATE  = 
ORIGINATOR     = 

OBJECT_NAME    = UNKNOWN
OBJECT_ID      = 
CENTER_NAME    = EARTH
REF_FRAME      = TEME
TIME_SYSTEM    = UTC
MEAN_ELEMENT_THEORY = SGP/SGP4

EPOCH          = 2025-12-03T11:21:24.384096
MEAN_MOTION    = 14.07154870
ECCENTRICITY   = .013549
INCLINATION    = 98.9738
RA_OF_ASC_NODE = 248.0781
ARG_OF_PERICENTER = 263.4998
MEAN_ANOMALY   = 95.0730

EPHEMERIS_TYPE = 0
CLASSIFICATION_TYPE = U
NORAD_CAT_ID   = 82642
ELEMENT_SET_NO = 999
REV_AT_EPOCH   = 61483
BSTAR          = .20406E-2
MEAN_MOTION_DOT = .367E-4
MEAN_MOTION_DDOT = 0

CCSDS_OMM_VERS = 2.0
CREATION_DATE  = 
ORIGINATOR     = 

OBJECT_NAME    = UNKNOWN
OBJECT_ID      = 
CENTER_NAME    = EARTH
REF_FRAME      = TEME
TIME_SYSTEM    = UTC
MEAN_ELEMENT_THEORY = SGP/SGP4

EPOCH          = 2025-12-10T22:18:16.575264
MEAN_MOTION    = 14.20121049
ECCENTRICITY   = .0211091
INCLINATION    = 98.1742
RA_OF_ASC_NODE = 54.0145
ARG_OF_PERICENTER = 41.5535
MEAN_ANOMALY   = 320.1474

EPHEMERIS_TYPE = 0
CLASSIFICATION_TYPE = U
NORAD_CAT_ID   = 82683
ELEMENT_SET_NO = 999
REV_AT_EPOCH   = 46201
BSTAR          = .53932E-3
MEAN_MOTION_DOT = .1397E-4
MEAN_MOTION_DDOT = 0

CCSDS_OMM_VERS = 2.0
CREATION_DATE  = 
ORIGINATOR     = 

OBJECT_NAME    = UNKNOWN
OBJECT_ID      = 
CENTER_NAME    = EARTH
REF_FRAME      = TEME
TIME_SYSTEM    = UTC
MEAN_ELEMENT_THEORY = SGP/SGP4

EPOCH          = 2025-12-11T14:40:32.852640
MEAN_MOTION    = 13.69496519
ECCENTRICITY   = .0044844
INCLINATION    = 100.5296
RA_OF_ASC_NODE = 309.0192
ARG_OF_PERICENTER = 23.8139
MEAN_ANOMALY   = 336.5066

EPHEMERIS_TYPE = 0
CLASSIFICATION_TYPE = U
NORAD_CAT_ID   = 82693
ELEMENT_SET_NO = 999
REV_AT_EPOCH   = 55360
BSTAR          = .48775E-2
MEAN_MOTION_DOT = .4229E-4
MEAN_MOTION_DDOT = 0

CCSDS_OMM_VERS = 2.0
CREATION_DATE  = 
ORIGINATOR     = 

OBJECT_NAME    = UNKNOWN
OBJECT_ID      = 
CENTER_NAME    = EARTH
REF_FRAME      = TEME
TIME_SYSTEM    = UTC
MEAN_ELEMENT_THEORY = SGP/SGP4

EPOCH          = 2025-12-12T04:51:31.267008
MEAN_MOTION    = 13.29425846
ECCENTRICITY   = .0684082
INCLINATION    = 61.6104
RA_OF_ASC_NODE = 151.9106
ARG_OF_PERICENTER = 289.4268
MEAN_ANOMALY   = 63.4064

EPHEMERIS_TYPE = 0
CLASSIFICATION_TYPE = U
NORAD_CAT_ID   = 82698
ELEMENT_SET_NO = 999
REV_AT_EPOCH   = 53830
BSTAR          = .1457E-2
MEAN_MOTION_DOT = .2412E-4
MEAN_MOTION_DDOT = 0

CCSDS_OMM_VERS = 2.0
CREATION_DATE  = 
ORIGINATOR     = 

OBJECT_NAME    = UNKNOWN
OBJECT_ID      = 
CENTER_NAME    = EARTH
REF_FRAME      = TEME
TIME_SYSTEM    = UTC
MEAN_ELEMENT_THEORY = SGP/SGP4

EPOCH          = 2025-12-09T12:56:06.704736
MEAN_MOTION    = 12.90551568
ECCENTRICITY   = .0064479
INCLINATION    = 102.1665
RA_OF_ASC_NODE = 186.3923
ARG_OF_PERICENTER = 293.9658
MEAN_ANOMALY   = 65.4691

EPHEMERIS_TYPE = 0
CLASSIFICATION_TYPE = U
NORAD_CAT_ID   = 82708
ELEMENT_SET_NO = 999
REV_AT_EPOCH   = 52310
BSTAR          = .23177E-2
MEAN_MOTION_DOT = .563E-5
MEAN_MOTION_DDOT = 0

CCSDS_OMM_VERS = 2.0
CREATION_DATE  = 
ORIGINATOR     = 

OBJECT_NAME    = UNKNOWN
OBJECT_ID      = 
CENTER_NAME    = EARTH
REF_FRAME      = TEME
TIME_SYSTEM    = UTC
MEAN_ELEMENT_THEORY = SGP/SGP4

EPOCH          = 2025-12-11T22:03:54.386208
MEAN_MOTION    = 12.17750010
ECCENTRICITY   = .0831774
INCLINATION    = 67.9645
RA_OF_ASC_NODE = 147.3119
ARG_OF_PERICENTER = 11.5359
MEAN_ANOMALY   = 350.3467

EPHEMERIS_TYPE = 0
CLASSIFICATION_TYPE = U
NORAD_CAT_ID   = 82729
ELEMENT_SET_NO = 999
REV_AT_EPOCH   = 53510
BSTAR          = .12354E-2
MEAN_MOTION_DOT = .33E-5
MEAN_MOTION_DDOT = 0

